[{"OBJECT_NAME":"STARLINK-34385","OBJECT_ID":"2025-126J","EPOCH":"2026-02-19T11:57:07.174944","MEAN_MOTION":14.98339439,"ECCENTRICITY":0.0003314,"INCLINATION":70.0002,"RA_OF_ASC_NODE":80.4599,"ARG_OF_PERICENTER":269.6131,"MEAN_ANOMALY":90.4649,"EPHEMERIS_TYPE":0,"CLASSIFICATION_TYPE":"U","NORAD_CAT_ID":64352,"ELEMENT_SET_NO":999,"REV_AT_EPOCH":3795,"BSTAR":0.00036543588,"MEAN_MOTION_DOT":4.271e-5,"MEAN_MOTION_DDOT":0},{"OBJECT_NAME":"STARLINK-34431","OBJECT_ID":"2025-126K","EPOCH":"2026-02-19T16:00:01.999584","MEAN_MOTION":14.98336631,"ECCENTRICITY":0.00033287,"INCLINATION":69.9995,"RA_OF_ASC_NODE":79.8101,"ARG_OF_PERICENTER":276.8827,"MEAN_ANOMALY":114.5605,"EPHEMERIS_TYPE":0,"CLASSIFICATION_TYPE":"U","NORAD_CAT_ID":64353,"ELEMENT_SET_NO":999,"REV_AT_EPOCH":573,"BSTAR":-0.0037971933,"MEAN_MOTION_DOT":-0.00045119,"MEAN_MOTION_DDOT":0},{"OBJECT_NAME":"STARLINK-34473","OBJECT_ID":"2025-126L","EPOCH":"2026-02-19T11:21:03.129696","MEAN_MOTION":14.98333835,"ECCENTRICITY":0.00029579,"INCLINATION":70.0014,"RA_OF_ASC_NODE":80.3749,"ARG_OF_PERICENTER":258.9383,"MEAN_ANOMALY":101.1443,"EPHEMERIS_TYPE":0,"CLASSIFICATION_TYPE":"U","NORAD_CAT_ID":64354,"ELEMENT_SET_NO":999,"REV_AT_EPOCH":3795,"BSTAR":0.00016269478,"MEAN_MOTION_DOT":1.849e-5,"MEAN_MOTION_DDOT":0},{"OBJECT_NAME":"STARLINK-34270","OBJECT_ID":"2025-126M","EPOCH":"2026-02-19T11:27:04.324896","MEAN_MOTION":14.98335467,"ECCENTRICITY":0.00033204,"INCLINATION":70.0014,"RA_OF_ASC_NODE":80.387,"ARG_OF_PERICENTER":264.05,"MEAN_ANOMALY":96.0281,"EPHEMERIS_TYPE":0,"CLASSIFICATION_TYPE":"U","NORAD_CAT_ID":64355,"ELEMENT_SET_NO":999,"REV_AT_EPOCH":3916,"BSTAR":0.00028467618,"MEAN_MOTION_DOT":3.306e-5,"MEAN_MOTION_DDOT":0},{"OBJECT_NAME":"STARLINK-34397","OBJECT_ID":"2025-126N","EPOCH":"2026-02-19T12:03:08.834112","MEAN_MOTION":14.98318005,"ECCENTRICITY":0.00031088,"INCLINATION":70.0002,"RA_OF_ASC_NODE":80.473,"ARG_OF_PERICENTER":256.039,"MEAN_ANOMALY":104.0423,"EPHEMERIS_TYPE":0,"CLASSIFICATION_TYPE":"U","NORAD_CAT_ID":64356,"ELEMENT_SET_NO":999,"REV_AT_EPOCH":3795,"BSTAR":-9.5623921e-5,"MEAN_MOTION_DOT":-1.233e-5,"MEAN_MOTION_DDOT":0},{"OBJECT_NAME":"STARLINK-34454","OBJECT_ID":"2025-126P","EPOCH":"2026-02-19T12:09:23.968224","MEAN_MOTION":14.9834436,"ECCENTRICITY":0.00032249,"INCLINATION":70.0001,"RA_OF_ASC_NODE":80.4842,"ARG_OF_PERICENTER":265.0833,"MEAN_ANOMALY":94.9958,"EPHEMERIS_TYPE":0,"CLASSIFICATION_TYPE":"U","NORAD_CAT_ID":64357,"ELEMENT_SET_NO":999,"REV_AT_EPOCH":3795,"BSTAR":0.00035614832,"MEAN_MOTION_DOT":4.161e-5,"MEAN_MOTION_DDOT":0},{"OBJECT_NAME":"STARLINK-34436","OBJECT_ID":"2025-126Q","EPOCH":"2026-02-19T10:51:14.536512","MEAN_MOTION":14.98328905,"ECCENTRICITY":0.00028269,"INCLINATION":70.0007,"RA_OF_ASC_NODE":80.2913,"ARG_OF_PERICENTER":297.827,"MEAN_ANOMALY":62.2603,"EPHEMERIS_TYPE":0,"CLASSIFICATION_TYPE":"U","NORAD_CAT_ID":64358,"ELEMENT_SET_NO":999,"REV_AT_EPOCH":3795,"BSTAR":0.0010981094,"MEAN_MOTION_DOT":0.00013033,"MEAN_MOTION_DDOT":0},{"OBJECT_NAME":"STARLINK-34291","OBJECT_ID":"2025-126R","EPOCH":"2026-02-19T11:15:16.100640","MEAN_MOTION":14.98350286,"ECCENTRICITY":0.00031486,"INCLINATION":70.0007,"RA_OF_ASC_NODE":80.3519,"ARG_OF_PERICENTER":267.548,"MEAN_ANOMALY":92.5318,"EPHEMERIS_TYPE":0,"CLASSIFICATION_TYPE":"U","NORAD_CAT_ID":64359,"ELEMENT_SET_NO":999,"REV_AT_EPOCH":3795,"BSTAR":0.00063236036,"MEAN_MOTION_DOT":7.464e-5,"MEAN_MOTION_DDOT":0},{"OBJECT_NAME":"STARLINK-34458","OBJECT_ID":"2025-126S","EPOCH":"2026-02-19T11:27:18.117792","MEAN_MOTION":14.98336658,"ECCENTRICITY":0.00024882,"INCLINATION":70.0006,"RA_OF_ASC_NODE":80.3812,"ARG_OF_PERICENTER":276.9333,"MEAN_ANOMALY":83.1543,"EPHEMERIS_TYPE":0,"CLASSIFICATION_TYPE":"U","NORAD_CAT_ID":64360,"ELEMENT_SET_NO":999,"REV_AT_EPOCH":3795,"BSTAR":0.00029990285,"MEAN_MOTION_DOT":3.488e-5,"MEAN_MOTION_DDOT":0},{"OBJECT_NAME":"STARLINK-34243","OBJECT_ID":"2025-126T","EPOCH":"2026-02-19T11:33:04.601664","MEAN_MOTION":14.98331547,"ECCENTRICITY":0.00032114,"INCLINATION":70.0008,"RA_OF_ASC_NODE":80.4005,"ARG_OF_PERICENTER":269.5761,"MEAN_ANOMALY":90.503,"EPHEMERIS_TYPE":0,"CLASSIFICATION_TYPE":"U","NORAD_CAT_ID":64361,"ELEMENT_SET_NO":999,"REV_AT_EPOCH":3795,"BSTAR":0.00023118282,"MEAN_MOTION_DOT":2.667e-5,"MEAN_MOTION_DDOT":0},{"OBJECT_NAME":"STARLINK-34335","OBJECT_ID":"2025-126U","EPOCH":"2026-02-19T12:33:08.527104","MEAN_MOTION":14.98334079,"ECCENTRICITY":0.0003205,"INCLINATION":70.0014,"RA_OF_ASC_NODE":80.1464,"ARG_OF_PERICENTER":260.0474,"MEAN_ANOMALY":100.0323,"EPHEMERIS_TYPE":0,"CLASSIFICATION_TYPE":"U","NORAD_CAT_ID":64362,"ELEMENT_SET_NO":999,"REV_AT_EPOCH":3796,"BSTAR":0.00046713,"MEAN_MOTION_DOT":5.486e-5,"MEAN_MOTION_DDOT":0},{"OBJECT_NAME":"STARLINK-34408","OBJECT_ID":"2025-126V","EPOCH":"2026-02-19T12:21:07.210656","MEAN_MOTION":14.98338461,"ECCENTRICITY":0.0003333,"INCLINATION":70.0005,"RA_OF_ASC_NODE":80.1134,"ARG_OF_PERICENTER":273.6299,"MEAN_ANOMALY":86.4479,"EPHEMERIS_TYPE":0,"CLASSIFICATION_TYPE":"U","NORAD_CAT_ID":64363,"ELEMENT_SET_NO":999,"REV_AT_EPOCH":3796,"BSTAR":0.00030889,"MEAN_MOTION_DOT":3.595e-5,"MEAN_MOTION_DDOT":0},{"OBJECT_NAME":"STARLINK-34476","OBJECT_ID":"2025-126W","EPOCH":"2026-02-19T11:15:04.650048","MEAN_MOTION":14.98326425,"ECCENTRICITY":0.00026755,"INCLINATION":70.0016,"RA_OF_ASC_NODE":80.3559,"ARG_OF_PERICENTER":276.6086,"MEAN_ANOMALY":83.4768,"EPHEMERIS_TYPE":0,"CLASSIFICATION_TYPE":"U","NORAD_CAT_ID":64364,"ELEMENT_SET_NO":999,"REV_AT_EPOCH":3795,"BSTAR":0.0010433946,"MEAN_MOTION_DOT":0.00012377,"MEAN_MOTION_DDOT":0},{"OBJECT_NAME":"STARLINK-34479","OBJECT_ID":"2025-126X","EPOCH":"2026-02-19T12:15:09.654624","MEAN_MOTION":14.98329453,"ECCENTRICITY":0.0003336,"INCLINATION":69.9996,"RA_OF_ASC_NODE":80.4974,"ARG_OF_PERICENTER":270.7413,"MEAN_ANOMALY":89.3364,"EPHEMERIS_TYPE":0,"CLASSIFICATION_TYPE":"U","NORAD_CAT_ID":64365,"ELEMENT_SET_NO":999,"REV_AT_EPOCH":3795,"BSTAR":0.00036346,"MEAN_MOTION_DOT":4.246e-5,"MEAN_MOTION_DDOT":0},{"OBJECT_NAME":"STARLINK-34484","OBJECT_ID":"2025-126Y","EPOCH":"2026-02-19T12:27:07.922016","MEAN_MOTION":14.98337797,"ECCENTRICITY":0.0003063,"INCLINATION":69.9999,"RA_OF_ASC_NODE":80.1242,"ARG_OF_PERICENTER":267.4992,"MEAN_ANOMALY":92.5816,"EPHEMERIS_TYPE":0,"CLASSIFICATION_TYPE":"U","NORAD_CAT_ID":64366,"ELEMENT_SET_NO":999,"REV_AT_EPOCH":3917,"BSTAR":0.00024895,"MEAN_MOTION_DOT":2.879e-5,"MEAN_MOTION_DDOT":0},{"OBJECT_NAME":"STARLINK-34483","OBJECT_ID":"2025-126Z","EPOCH":"2026-02-19T09:21:06.661152","MEAN_MOTION":14.98335655,"ECCENTRICITY":0.00028441,"INCLINATION":70.0015,"RA_OF_ASC_NODE":80.4777,"ARG_OF_PERICENTER":261.4502,"MEAN_ANOMALY":98.6335,"EPHEMERIS_TYPE":0,"CLASSIFICATION_TYPE":"U","NORAD_CAT_ID":64367,"ELEMENT_SET_NO":999,"REV_AT_EPOCH":3794,"BSTAR":0.00015673261,"MEAN_MOTION_DOT":1.778e-5,"MEAN_MOTION_DDOT":0},{"OBJECT_NAME":"STARLINK-34457","OBJECT_ID":"2025-126AA","EPOCH":"2026-02-19T11:51:06.494688","MEAN_MOTION":14.98348525,"ECCENTRICITY":0.00030673,"INCLINATION":70.0008,"RA_OF_ASC_NODE":80.4401,"ARG_OF_PERICENTER":271.3249,"MEAN_ANOMALY":88.7558,"EPHEMERIS_TYPE":0,"CLASSIFICATION_TYPE":"U","NORAD_CAT_ID":64368,"ELEMENT_SET_NO":999,"REV_AT_EPOCH":3795,"BSTAR":0.00022295693,"MEAN_MOTION_DOT":2.57e-5,"MEAN_MOTION_DDOT":0},{"OBJECT_NAME":"STARLINK-34444","OBJECT_ID":"2025-126AB","EPOCH":"2026-02-19T11:57:21.840480","MEAN_MOTION":14.98329574,"ECCENTRICITY":0.00033694,"INCLINATION":69.9995,"RA_OF_ASC_NODE":80.4537,"ARG_OF_PERICENTER":270.5111,"MEAN_ANOMALY":89.5662,"EPHEMERIS_TYPE":0,"CLASSIFICATION_TYPE":"U","NORAD_CAT_ID":64369,"ELEMENT_SET_NO":999,"REV_AT_EPOCH":3795,"BSTAR":0.00014393027,"MEAN_MOTION_DOT":1.625e-5,"MEAN_MOTION_DDOT":0},{"OBJECT_NAME":"STARLINK-11732 [DTC]","OBJECT_ID":"2025-127A","EPOCH":"2026-02-19T09:21:53.550432","MEAN_MOTION":15.70942866,"ECCENTRICITY":7.094e-5,"INCLINATION":42.9986,"RA_OF_ASC_NODE":194.9039,"ARG_OF_PERICENTER":284.9912,"MEAN_ANOMALY":75.0877,"EPHEMERIS_TYPE":0,"CLASSIFICATION_TYPE":"U","NORAD_CAT_ID":64370,"ELEMENT_SET_NO":999,"REV_AT_EPOCH":4062,"BSTAR":0.0014540047,"MEAN_MOTION_DOT":0.00191302,"MEAN_MOTION_DDOT":0},{"OBJECT_NAME":"STARLINK-11731 [DTC]","OBJECT_ID":"2025-127B","EPOCH":"2026-02-19T22:00:03.000096","MEAN_MOTION":15.70861856,"ECCENTRICITY":0.0001727,"INCLINATION":43.0006,"RA_OF_ASC_NODE":191.9563,"ARG_OF_PERICENTER":278.1326,"MEAN_ANOMALY":92.659,"EPHEMERIS_TYPE":0,"CLASSIFICATION_TYPE":"U","NORAD_CAT_ID":64371,"ELEMENT_SET_NO":999,"REV_AT_EPOCH":588,"BSTAR":-0.00044980068,"MEAN_MOTION_DOT":-0.00057819,"MEAN_MOTION_DDOT":0},{"OBJECT_NAME":"STARLINK-11746 [DTC]","OBJECT_ID":"2025-127C","EPOCH":"2026-02-19T10:30:31.558464","MEAN_MOTION":15.70995233,"ECCENTRICITY":0.00012663,"INCLINATION":42.9976,"RA_OF_ASC_NODE":194.3892,"ARG_OF_PERICENTER":215.7963,"MEAN_ANOMALY":144.282,"EPHEMERIS_TYPE":0,"CLASSIFICATION_TYPE":"U","NORAD_CAT_ID":64372,"ELEMENT_SET_NO":999,"REV_AT_EPOCH":4063,"BSTAR":0.0016957534,"MEAN_MOTION_DOT":0.00224581,"MEAN_MOTION_DDOT":0},{"OBJECT_NAME":"STARLINK-11748 [DTC]","OBJECT_ID":"2025-127D","EPOCH":"2026-02-19T17:39:14.892192","MEAN_MOTION":15.70864626,"ECCENTRICITY":0.00015077,"INCLINATION":42.9985,"RA_OF_ASC_NODE":193.2075,"ARG_OF_PERICENTER":291.8112,"MEAN_ANOMALY":68.2595,"EPHEMERIS_TYPE":0,"CLASSIFICATION_TYPE":"U","NORAD_CAT_ID":64373,"ELEMENT_SET_NO":999,"REV_AT_EPOCH":4067,"BSTAR":0.00096039489,"MEAN_MOTION_DOT":0.00124778,"MEAN_MOTION_DDOT":0},{"OBJECT_NAME":"STARLINK-11739 [DTC]","OBJECT_ID":"2025-127E","EPOCH":"2026-02-19T19:16:57.395712","MEAN_MOTION":15.70868987,"ECCENTRICITY":7.073e-5,"INCLINATION":42.9968,"RA_OF_ASC_NODE":191.961,"ARG_OF_PERICENTER":305.8936,"MEAN_ANOMALY":54.1866,"EPHEMERIS_TYPE":0,"CLASSIFICATION_TYPE":"U","NORAD_CAT_ID":64374,"ELEMENT_SET_NO":999,"REV_AT_EPOCH":4069,"BSTAR":0.0014096475,"MEAN_MOTION_DOT":0.0018473,"MEAN_MOTION_DDOT":0}]
